     2.100          NAVIGATION                              RINEX VERSION / TYPE
fic2rin                                 03/16/2010 00:36:28 PGM / RUN BY / DATE
                                                            END OF HEADER
32 10  3 15 15 59 44.0  .738366506994D-04 -.852651282912D-11  .000000000000D+00
     .180000000000D+02 -.265937500000D+02  .507592571839D-08 -.858115953162D+00
    -.132434070110D-05  .127817189787D-01  .338070094585D-05  .515357009697D+04
     .143984000000D+06 -.115483999252D-06  .175637027640D+01 -.134110450745D-06
     .959641531596D+00  .314281250000D+03 -.101036232190D+01 -.874322133312D-08
    -.696457581682D-10  .100000000000D+01  .157500000000D+04  .000000000000D+00
     .240000000000D+01  .000000000000D+00 -.325962901115D-08  .180000000000D+02
     .136806000000D+06  .400000000000D+01
 2 10  3 15 16  0  0.0  .236572697759D-03  .386535248253D-11  .000000000000D+00
     .610000000000D+02  .765312500000D+02  .514092842602D-08 -.205259373191D-01
     .394135713577D-05  .943166646175D-02  .946223735809D-05  .515379126740D+04
     .144000000000D+06  .143423676491D-06  .607736688570D+00 -.931322574615D-08
     .940428065861D+00  .186906250000D+03  .298980186388D+01 -.844892336014D-08
     .456090426568D-09  .100000000000D+01  .157500000000D+04  .000000000000D+00
     .240000000000D+01  .000000000000D+00 -.172294676304D-07  .610000000000D+02
     .136806000000D+06  .400000000000D+01
 3 10  3 15 16  0  0.0  .528522301465D-03  .511590769747D-11  .000000000000D+00
     .117000000000D+03 -.710312500000D+02  .531843581991D-08 -.140389388444D+00
    -.368244946003D-05  .128945629112D-01  .924244523048D-05  .515370321083D+04
     .144000000000D+06 -.484287738800D-07 -.543171319940D+00  .162050127983D-06
     .927281826107D+00  .186625000000D+03  .984318829585D+00 -.867786146776D-08
    -.349657421778D-09  .100000000000D+01  .157500000000D+04  .000000000000D+00
     .485000000000D+01  .000000000000D+00 -.419095158577D-08  .117000000000D+03
     .136806000000D+06  .400000000000D+01
 4 10  3 15 16  0  0.0  .373213551939D-04  .886757334229D-11  .000000000000D+00
     .103000000000D+03  .861250000000D+02  .500163690968D-08  .301044934774D+01
     .432133674622D-05  .909155583940D-02  .930763781071D-05  .515365796661D+04
     .144000000000D+06 -.577419996262D-07  .625692520205D+00 -.875443220139D-07
     .939563892356D+00  .189125000000D+03  .600033171161D+00 -.815533970263D-08
     .468948104999D-09  .100000000000D+01  .157500000000D+04  .000000000000D+00
     .240000000000D+01  .000000000000D+00 -.605359673500D-08  .103000000000D+03
     .136806000000D+06  .400000000000D+01
 5 10  3 15 16  0  0.0 -.366009771824D-05  .125055521494D-11  .000000000000D+00
     .500000000000D+02 -.127500000000D+02  .516378652101D-08  .145123517745D+01
    -.432133674622D-06  .190008676145D-02  .296533107758D-05  .515365967369D+04
     .144000000000D+06  .186264514923D-08  .166732620530D+01  .447034835815D-07
     .958817714149D+00  .322062500000D+03  .353341016037D+00 -.856785688563D-08
    -.144648882349D-09  .100000000000D+01  .157500000000D+04  .000000000000D+00
     .240000000000D+01  .000000000000D+00 -.884756445885D-08  .500000000000D+02
     .136806000000D+06  .400000000000D+01
 6 10  3 15 16  0  0.0  .688175205141D-03 -.727595761418D-11  .000000000000D+00
     .520000000000D+02 -.774375000000D+02  .501770900772D-08  .211294700829D+01
    -.404193997383D-05  .609692011494D-02  .971555709839D-05  .515367182159D+04
     .144000000000D+06  .838190317154D-07 -.473178065880D+00 -.167638063431D-07
     .934705254683D+00  .177875000000D+03 -.112584895181D+01 -.821034199370D-08
    -.390373403476D-09  .100000000000D+01  .157500000000D+04  .000000000000D+00
     .240000000000D+01  .000000000000D+00 -.465661287308D-08  .520000000000D+02
     .136806000000D+06  .400000000000D+01
 7 10  3 15 16  0  0.0  .163260847330D-05 -.454747350886D-12  .000000000000D+00
     .550000000000D+02  .801875000000D+02  .413088635371D-08 -.166674946009D+01
     .404752790928D-05  .327948958147D-02  .941567122936D-05  .515372126961D+04
     .144000000000D+06 -.106170773506D-06 -.251617965314D+01  .242143869400D-07
     .970968461557D+00  .205375000000D+03  .306058464312D+01 -.783211195319D-08
     .481091467962D-09  .100000000000D+01  .157500000000D+04  .000000000000D+00
     .240000000000D+01  .000000000000D+00 -.107102096081D-07  .550000000000D+02
     .136806000000D+06  .400000000000D+01
 8 10  3 15 16  0  0.0  .411691144109D-05  .227373675443D-12  .000000000000D+00
     .540000000000D+02  .864062500000D+02  .370158275721D-08 -.227768210679D+01
     .432692468166D-05  .109583674930D-01  .933930277824D-05  .515370998383D+04
     .144000000000D+06 -.122934579849D-06 -.244980366153D+01 -.596046447754D-07
     .992251232229D+00  .218875000000D+03  .309082237716D+01 -.763138930657D-08
     .572523847916D-09  .100000000000D+01  .157500000000D+04  .000000000000D+00
     .340000000000D+01  .000000000000D+00 -.419095158577D-08  .540000000000D+02
     .136806000000D+06  .400000000000D+01
 9 10  3 15 16  0  0.0  .111662782729D-03  .227373675443D-11  .000000000000D+00
     .450000000000D+02  .813125000000D+02  .382837375285D-08 -.239259130099D+01
     .417791306973D-05  .207494524075D-01  .100489705801D-04  .515360146332D+04
     .144000000000D+06  .286847352982D-06 -.254808969419D+01  .409781932831D-07
     .979788794033D+00  .191218750000D+03  .153334018337D+01 -.739637951747D-08
     .514664294977D-09  .100000000000D+01  .157500000000D+04  .000000000000D+00
     .240000000000D+01  .000000000000D+00 -.558793544769D-08  .450000000000D+02
     .136806000000D+06  .400000000000D+01
10 10  3 15 16  0  0.0 -.379150733352D-04 -.909494701773D-12  .000000000000D+00
     .860000000000D+02 -.163437500000D+02  .530343519508D-08  .148180663821D+01
    -.713393092155D-06  .917255308013D-02  .327080488205D-05  .515346225357D+04
     .144000000000D+06 -.150874257088D-06  .169351673990D+01  .130385160446D-06
     .953859061156D+00  .317000000000D+03  .660853978604D+00 -.869214777713D-08
    -.222509268404D-09  .100000000000D+01  .157500000000D+04  .000000000000D+00
     .340000000000D+01  .000000000000D+00 -.279396772385D-08  .860000000000D+02
     .136806000000D+06  .400000000000D+01
11 10  3 15 16  0  0.0 -.507305376232D-04 -.216004991671D-11  .000000000000D+00
     .120000000000D+02  .671562500000D+02  .601489340160D-08 -.176614426615D+01
     .332109630108D-05  .105097498745D-01  .101961195469D-04  .515373441505D+04
     .144000000000D+06  .147148966789D-06  .392891117492D+00 -.104308128357D-06
     .889032266140D+00  .141656250000D+03  .797075456386D+00 -.860000108171D-08
     .404302555110D-09  .100000000000D+01  .157500000000D+04  .000000000000D+00
     .240000000000D+01  .000000000000D+00 -.116415321827D-07  .120000000000D+02
     .136806000000D+06  .400000000000D+01
12 10  3 15 16  0  0.0 -.138440169394D-03  .466116034659D-11  .000000000000D+00
     .430000000000D+02 -.131875000000D+02  .473626871317D-08 -.159572779802D+01
    -.638887286186D-06  .349227769766D-02  .322982668877D-05  .515372390938D+04
     .144000000000D+06 -.633299350739D-07 -.146241927540D+01  .298023223877D-07
     .969593545314D+00  .323312500000D+03 -.527236496465D+00 -.836570560807D-08
     .367872466222D-10  .100000000000D+01  .157500000000D+04  .000000000000D+00
     .240000000000D+01  .000000000000D+00 -.121071934700D-07  .430000000000D+02
     .136806000000D+06  .400000000000D+01
13 10  3 15 16  0  0.0  .306034460664D-03 -.227373675443D-12  .000000000000D+00
     .110000000000D+02 -.471250000000D+02  .353157567573D-08  .844957148405D+00
    -.260584056377D-05  .425167405047D-02  .117234885693D-04  .515357825661D+04
     .144000000000D+06 -.502914190292D-07  .278474036060D+01 -.409781932831D-07
     .993600819508D+00  .171843750000D+03  .164430257235D+01 -.756531512574D-08
    -.432875173846D-09  .100000000000D+01  .157500000000D+04  .000000000000D+00
     .240000000000D+01  .000000000000D+00 -.111758708954D-07  .110000000000D+02
     .136806000000D+06  .400000000000D+01
14 10  3 15 16  0  0.0  .222413800657D-04  .409272615798D-11  .000000000000D+00
     .120000000000D+02 -.615625000000D+02  .376872841124D-08  .659123470864D+00
    -.316090881824D-05  .495608919300D-02  .110492110252D-04  .515372117233D+04
     .144000000000D+06 -.949949026108D-07  .276341694274D+01  .931322574615D-08
     .986892892462D+00  .182906250000D+03 -.210537034929D+01 -.771139263903D-08
    -.468590947265D-09  .100000000000D+01  .157500000000D+04  .000000000000D+00
     .240000000000D+01  .000000000000D+00 -.884756445885D-08  .120000000000D+02
     .136806000000D+06  .400000000000D+01
15 10  3 15 16  0  0.0 -.297905411571D-03  .386535248253D-11  .000000000000D+00
     .680000000000D+02 -.726250000000D+02  .453447459335D-08  .638262468251D+00
    -.381655991077D-05  .244295736775D-02  .106655061245D-04  .515373767471D+04
     .144000000000D+06  .670552253723D-07  .270173072563D+01 -.130385160446D-07
     .954518108676D+00  .166312500000D+03 -.235119586589D+00 -.807212195057D-08
    -.511807033103D-09  .100000000000D+01  .157500000000D+04  .000000000000D+00
     .240000000000D+01  .000000000000D+00 -.977888703346D-08  .680000000000D+02
     .136806000000D+06  .400000000000D+01
16 10  3 15 16  0  0.0 -.513643026352D-04 -.397903932026D-11  .000000000000D+00
     .540000000000D+02 -.133125000000D+02  .470912472538D-08  .235498676793D+01
    -.668689608574D-06  .577599182725D-02  .275298953056D-05  .515372354317D+04
     .144000000000D+06  .149011611938D-07 -.144507622504D+01  .117346644402D-06
     .970861639279D+00  .331750000000D+03 -.267315770021D+00 -.834677624816D-08
    -.485734518507D-10  .100000000000D+01  .157500000000D+04  .000000000000D+00
     .240000000000D+01  .000000000000D+00 -.977888703346D-08  .540000000000D+02
     .136806000000D+06  .400000000000D+01
